[
    {
        "Altitude(m)": 565044.506627671,
        "Argument of Periapsis(deg)": 0.026491964442854003,
        "Eccentricity": 0.0,
        "Inclination(deg)": 53.0,
        "Latitude(deg)": -36.388797833221794,
        "Longitude(deg)": -84.65892257298589,
        "Mean Anomaly(deg)": -132.36082852968966,
        "RAAN(deg)": 164.96057347411204,
        "Satellite Name": "Starlink Shell 1 737",
        "Satellite Number": 737,
        "Semi-Major Axis(m)": 6931778.249405717,
        "Time(s)": 760
    },
    {
        "Altitude(m)": 565214.5129674353,
        "Argument of Periapsis(deg)": 0.02684054292236524,
        "Eccentricity": 0.0,
        "Inclination(deg)": 53.0,
        "Latitude(deg)": -36.80505114091089,
        "Longitude(deg)": -84.1186847846814,
        "Mean Anomaly(deg)": -131.73399732613294,
        "RAAN(deg)": 164.9600547040346,
        "Satellite Name": "Starlink Shell 1 737",
        "Satellite Number": 737,
        "Semi-Major Axis(m)": 6931778.249405717,
        "Time(s)": 770
    },
    {
        "Altitude(m)": 565383.6479518076,
        "Argument of Periapsis(deg)": 0.027189121401876473,
        "Eccentricity": 0.0,
        "Inclination(deg)": 53.0,
        "Latitude(deg)": -37.218390718285534,
        "Longitude(deg)": -83.57216127604269,
        "Mean Anomaly(deg)": -131.10716612257622,
        "RAAN(deg)": 164.9595359339571,
        "Satellite Name": "Starlink Shell 1 737",
        "Satellite Number": 737,
        "Semi-Major Axis(m)": 6931778.249405717,
        "Time(s)": 780
    },
    {
        "Altitude(m)": 565551.8463138982,
        "Argument of Periapsis(deg)": 0.02753769988138771,
        "Eccentricity": 0.0,
        "Inclination(deg)": 53.0,
        "Latitude(deg)": -37.6287423286985,
        "Longitude(deg)": -83.01923269743052,
        "Mean Anomaly(deg)": -130.48033491901955,
        "RAAN(deg)": 164.95901716387965,
        "Satellite Name": "Starlink Shell 1 737",
        "Satellite Number": 737,
        "Semi-Major Axis(m)": 6931778.249405717,
        "Time(s)": 790
    },
    {
        "Altitude(m)": 565719.0430589388,
        "Argument of Periapsis(deg)": 0.02788627836089895,
        "Eccentricity": 0.0,
        "Inclination(deg)": 53.0,
        "Latitude(deg)": -38.03603006710947,
        "Longitude(deg)": -82.45978003677304,
        "Mean Anomaly(deg)": -129.85350371546278,
        "RAAN(deg)": 164.95849839380216,
        "Satellite Name": "Starlink Shell 1 737",
        "Satellite Number": 737,
        "Semi-Major Axis(m)": 6931778.249405717,
        "Time(s)": 800
    },
    {
        "Altitude(m)": 565885.1734932243,
        "Argument of Periapsis(deg)": 0.02823485684041019,
        "Eccentricity": 0.0,
        "Inclination(deg)": 53.0,
        "Latitude(deg)": -38.44017633412854,
        "Longitude(deg)": -81.89368426084037,
        "Mean Anomaly(deg)": -129.22667251190606,
        "RAAN(deg)": 164.95797962372473,
        "Satellite Name": "Starlink Shell 1 737",
        "Satellite Number": 737,
        "Semi-Major Axis(m)": 6931778.249405717,
        "Time(s)": 810
    },
    {
        "Altitude(m)": 566050.1732528787,
        "Argument of Periapsis(deg)": 0.028583435319921423,
        "Eccentricity": 0.0,
        "Inclination(deg)": 53.0,
        "Latitude(deg)": -38.841101811557266,
        "Longitude(deg)": -81.32082596891254,
        "Mean Anomaly(deg)": -128.59984130834937,
        "RAAN(deg)": 164.9574608536472,
        "Satellite Name": "Starlink Shell 1 737",
        "Satellite Number": 737,
        "Semi-Major Axis(m)": 6931778.249405717,
        "Time(s)": 820
    },
    {
        "Altitude(m)": 566213.9783325,
        "Argument of Periapsis(deg)": 0.028932013799432665,
        "Eccentricity": 0.0,
        "Inclination(deg)": 53.0,
        "Latitude(deg)": -39.23872543963212,
        "Longitude(deg)": -80.74108657231798,
        "Mean Anomaly(deg)": -127.97301010479264,
        "RAAN(deg)": 164.95694208356977,
        "Satellite Name": "Starlink Shell 1 737",
        "Satellite Number": 737,
        "Semi-Major Axis(m)": 6931778.249405717,
        "Time(s)": 830
    },
    {
        "Altitude(m)": 566376.5251135677,
        "Argument of Periapsis(deg)": 0.029280592278943897,
        "Eccentricity": 0.0,
        "Inclination(deg)": 53.0,
        "Latitude(deg)": -39.6329643961913,
        "Longitude(deg)": -80.15434797469027,
        "Mean Anomaly(deg)": -127.34617890123599,
        "RAAN(deg)": 164.95642331349228,
        "Satellite Name": "Starlink Shell 1 737",
        "Satellite Number": 737,
        "Semi-Major Axis(m)": 6931778.249405717,
        "Time(s)": 840
    },
    {
        "Altitude(m)": 566537.7503927137,
        "Argument of Periapsis(deg)": 0.029629170758455132,
        "Eccentricity": 0.0,
        "Inclination(deg)": 53.0,
        "Latitude(deg)": -40.023734078001894,
        "Longitude(deg)": -79.5604922664094,
        "Mean Anomaly(deg)": -126.7193476976792,
        "RAAN(deg)": 164.9559045434148,
        "Satellite Name": "Starlink Shell 1 737",
        "Satellite Number": 737,
        "Semi-Major Axis(m)": 6931778.249405717,
        "Time(s)": 850
    },
    {
        "Altitude(m)": 566697.5914097714,
        "Argument of Periapsis(deg)": 0.02997774923796637,
        "Eccentricity": 0.0,
        "Inclination(deg)": 53.0,
        "Latitude(deg)": -40.41094808449554,
        "Longitude(deg)": -78.95940311478618,
        "Mean Anomaly(deg)": -126.09251649412249,
        "RAAN(deg)": 164.95538577333733,
        "Satellite Name": "Starlink Shell 1 737",
        "Satellite Number": 737,
        "Semi-Major Axis(m)": 6931778.249405717,
        "Time(s)": 860
    },
    {
        "Altitude(m)": 566855.9858756013,
        "Argument of Periapsis(deg)": 0.030326327717477602,
        "Eccentricity": 0.0,
        "Inclination(deg)": 53.0,
        "Latitude(deg)": -40.794518204181536,
        "Longitude(deg)": -78.35096464811755,
        "Mean Anomaly(deg)": -125.4656852905658,
        "RAAN(deg)": 164.95486700325986,
        "Satellite Name": "Starlink Shell 1 737",
        "Satellite Number": 737,
        "Semi-Major Axis(m)": 6931778.249405717,
        "Time(s)": 870
    },
    {
        "Altitude(m)": 567012.8719997065,
        "Argument of Periapsis(deg)": 0.030674906196988847,
        "Eccentricity": 0.0,
        "Inclination(deg)": 53.0,
        "Latitude(deg)": -41.1743544040171,
        "Longitude(deg)": -77.73506287707698,
        "Mean Anomaly(deg)": -124.83885408700903,
        "RAAN(deg)": 164.95434823318237,
        "Satellite Name": "Starlink Shell 1 737",
        "Satellite Number": 737,
        "Semi-Major Axis(m)": 6931778.249405717,
        "Time(s)": 880
    },
    {
        "Altitude(m)": 567168.1885176038,
        "Argument of Periapsis(deg)": 0.031023484676500086,
        "Eccentricity": 0.0,
        "Inclination(deg)": 53.0,
        "Latitude(deg)": -41.55036482203309,
        "Longitude(deg)": -77.11158545151515,
        "Mean Anomaly(deg)": -124.21202288345238,
        "RAAN(deg)": 164.9538294631049,
        "Satellite Name": "Starlink Shell 1 737",
        "Satellite Number": 737,
        "Semi-Major Axis(m)": 6931778.249405717,
        "Time(s)": 890
    },
    {
        "Altitude(m)": 567321.8747179504,
        "Argument of Periapsis(deg)": 0.03137206315601132,
        "Eccentricity": 0.0,
        "Inclination(deg)": 53.0,
        "Latitude(deg)": -41.92245576352843,
        "Longitude(deg)": -76.48042143411291,
        "Mean Anomaly(deg)": -123.58519167989562,
        "RAAN(deg)": 164.95331069302745,
        "Satellite Name": "Starlink Shell 1 737",
        "Satellite Number": 737,
        "Semi-Major Axis(m)": 6931778.249405717,
        "Time(s)": 900
    },
    {
        "Altitude(m)": 567473.8704693795,
        "Argument of Periapsis(deg)": 0.03172064163552255,
        "Eccentricity": 0.0,
        "Inclination(deg)": 53.0,
        "Latitude(deg)": -42.29053170116035,
        "Longitude(deg)": -75.8414626041887,
        "Mean Anomaly(deg)": -122.95836047633895,
        "RAAN(deg)": 164.95279192294996,
        "Satellite Name": "Starlink Shell 1 737",
        "Satellite Number": 737,
        "Semi-Major Axis(m)": 6931778.249405717,
        "Time(s)": 910
    },
    {
        "Altitude(m)": 567624.1162471141,
        "Argument of Periapsis(deg)": 0.0320692201150338,
        "Eccentricity": 0.0,
        "Inclination(deg)": 53.0,
        "Latitude(deg)": -42.65449527927511,
        "Longitude(deg)": -75.19460326626596,
        "Mean Anomaly(deg)": -122.33152927278219,
        "RAAN(deg)": 164.9522731528725,
        "Satellite Name": "Starlink Shell 1 737",
        "Satellite Number": 737,
        "Semi-Major Axis(m)": 6931778.249405717,
        "Time(s)": 920
    },
    {
        "Altitude(m)": 567772.5531592441,
        "Argument of Periapsis(deg)": 0.032417798594545036,
        "Eccentricity": 0.0,
        "Inclination(deg)": 53.0,
        "Latitude(deg)": -43.01424732283438,
        "Longitude(deg)": -74.5397400765769,
        "Mean Anomaly(deg)": -121.70469806922554,
        "RAAN(deg)": 164.95175438279503,
        "Satellite Name": "Starlink Shell 1 737",
        "Satellite Number": 737,
        "Semi-Major Axis(m)": 6931778.249405717,
        "Time(s)": 930
    },
    {
        "Altitude(m)": 567919.1229727439,
        "Argument of Periapsis(deg)": 0.03276637707405627,
        "Eccentricity": 0.0,
        "Inclination(deg)": 53.0,
        "Latitude(deg)": -43.36968685131051,
        "Longitude(deg)": -73.8767734005862,
        "Mean Anomaly(deg)": -121.07786686566878,
        "RAAN(deg)": 164.95123561271754,
        "Satellite Name": "Starlink Shell 1 737",
        "Satellite Number": 737,
        "Semi-Major Axis(m)": 6931778.249405717,
        "Time(s)": 940
    }
]